STARLINK-11552 [DTC]    
1 62907U 25027A   25191.77332557  .00152232  00000+0  11649-2 0  9994
2 62907  42.9993   5.9770 0002546 264.3320  95.7257 15.70907281 25133
STARLINK-11561 [DTC]    
1 62908U 25027B   25191.81034010 -.00000086  00000+0  28305-5 0  9993
2 62908  43.0065   5.3777 0001873 284.9172  75.0151 15.70829617 25042
STARLINK-11567 [DTC]    
1 62909U 25027C   25191.21700930  .00181580  00000+0  13856-2 0  9999
2 62909  43.0001   9.5538 0002158 277.1616  82.9006 15.70878716 24991
STARLINK-11569 [DTC]    
1 62910U 25027D   25191.18515208  .00140885  00000+0  10816-2 0  9995
2 62910  42.9993   9.2979 0002005 284.9840  75.0806 15.70868728 25010
STARLINK-11537 [DTC]    
1 62911U 25027E   25191.19576245  .00128769  00000+0  98757-3 0  9993
2 62911  43.0007   9.3821 0003905 276.5172  83.5251 15.70929430 25051
STARLINK-11565 [DTC]    
1 62912U 25027F   25191.48182920  .00127604  00000+0  98042-3 0  9993
2 62912  42.9978   7.2105 0001413 275.4066  84.6640 15.70896578 25062
STARLINK-11564 [DTC]    
1 62913U 25027G   25191.20638864  .00164922  00000+0  12616-2 0  9993
2 62913  42.9976   9.4668 0002515 263.1399  96.9183 15.70873084 25016
STARLINK-11566 [DTC]    
1 62914U 25027H   25191.21169677  .00142126  00000+0  10915-2 0  9998
2 62914  43.0033   9.5124 0002775 277.1497  82.9055 15.70854824 25051
STARLINK-11555 [DTC]    
1 62915U 25027J   25191.78485551  .00121476  00000+0  93439-3 0  9991
2 62915  42.9997   6.0671 0002633 262.9702  97.0866 15.70889387 25141
STARLINK-11430 [DTC]    
1 62916U 25027K   25191.47664858  .00185692  00000+0  14162-2 0  9992
2 62916  43.0002   8.0615 0001888 260.8980  99.1674 15.70878996 25095
STARLINK-11560 [DTC]    
1 62917U 25027L   25191.19046272  .00161506  00000+0  12360-2 0  9992
2 62917  42.9995   9.3370 0001470 286.1214  73.9492 15.70875536 25012
STARLINK-11562 [DTC]    
1 62918U 25027M   25190.86191882  .00163612  00000+0  12485-2 0  9992
2 62918  43.0005  11.1661 0002492 268.2123  91.8459 15.70936224 25009
STARLINK-11457 [DTC]    
1 62919U 25027N   25190.78772206  .00129165  00000+0  99212-3 0  9998
2 62919  42.9995  11.4640 0002351 270.3239  89.7359 15.70896661 24950
STARLINK-32921          
1 62920U 25027P   25191.03929158  .00017373  00000+0  63900-3 0  9991
2 62920  43.0032  59.0970 0001609 275.6355  84.4313 15.27598228 24437
STARLINK-32917          
1 62921U 25027Q   25191.05342639  .00004776  00000+0  18294-3 0  9996
2 62921  42.9996  59.1959 0001090 265.7135  94.3592 15.27583139 24437
STARLINK-32916          
1 62922U 25027R   25191.04315535  .00011121  00000+0  41317-3 0  9995
2 62922  43.0003  59.1212 0001232 253.3452 106.7264 15.27569407 24430
STARLINK-32905          
1 62923U 25027S   25190.99960023  .00011001  00000+0  40853-3 0  9998
2 62923  42.9990  59.6614 0001512 274.2543  85.8136 15.27593918 24427
STARLINK-32871          
1 62924U 25027T   25191.04957111  .00015671  00000+0  57782-3 0  9996
2 62924  43.0013  59.1647 0001601 269.2716  90.7952 15.27577889 24433
STARLINK-32920          
1 62925U 25027U   25191.04571535  .00019814  00000+0  72714-3 0  9994
2 62925  43.0001  59.1379 0001600 274.8222  85.2447 15.27600388 24435
STARLINK-32922          
1 62926U 25027V   25190.99574523  .00009481  00000+0  35348-3 0  9999
2 62926  42.9997  59.6256 0001294 272.1910  87.8793 15.27590988 24426
STARLINK-32891          
1 62927U 25027W   25191.00216687  .00015256  00000+0  56291-3 0  9994
2 62927  43.0025  59.6811 0001676 261.5659  98.5002 15.27570538 24548
KINEIS-2C               
1 62929U 25028B   25191.71625648  .00000900  00000+0  15056-3 0  9990
2 62929  98.0045 245.1887 0002254  58.7330 301.4098 14.72175868 22367
KINEIS-2D               
1 62930U 25028C   25191.74842555  .00000937  00000+0  14978-3 0  9995
2 62930  97.9764 245.1993 0002753 194.8336 165.2792 14.74107865 22388
KINEIS-2E               
1 62931U 25028D   25191.70919380  .00001003  00000+0  15418-3 0  9998
2 62931  97.9427 244.9897 0001706 115.5455 244.5931 14.75646438 22396
KINEIS-2A               
1 62932U 25028E   25191.73455933  .00000876  00000+0  14626-3 0  9998
2 62932  98.0138 245.3125 0003368 151.4837 208.6556 14.72350834 22366
KINEIS-2B               
1 62934U 25028G   25191.16327666  .00001057  00000+0  16580-3 0  9991
2 62934  97.9643 244.6514 0004518 122.6784 237.4861 14.74666719 22318
STARLINK-32728          
1 62948U 25029A   25191.52192259  .00002356  00000+0  91664-4 0  9995
2 62948  53.1575 274.9654 0001168  90.9098 269.2036 15.30196747 24316
STARLINK-32857          
1 62949U 25029B   25191.50609188  .00004779  00000+0  17337-3 0  9993
2 62949  53.1590 274.8704 0001130  84.4300 275.6829 15.30199233 24316
STARLINK-32850          
1 62950U 25029C   25191.47824298  .00007671  00000+0  27092-3 0  9995
2 62950  53.1584 277.5295 0001211  91.6522 268.4617 15.30193402 24241
STARLINK-32875          
1 62951U 25029D   25191.53247320  .00006210  00000+0  22161-3 0  9998
2 62951  53.1583 275.0289 0001331  97.0501 263.0651 15.30201523 24284
STARLINK-32865          
1 62952U 25029E   25191.53722423  .00006137  00000+0  21914-3 0  9994
2 62952  53.1586 277.1853 0001172  93.7700 266.3435 15.30200846 24255
STARLINK-32884          
1 62953U 25029F   25191.52930877  .00010641  00000+0  37086-3 0  9990
2 62953  53.1577 275.0088 0001106  79.7417 280.3709 15.30200703 24284
STARLINK-32874          
1 62954U 25029G   25191.51559038  .00016349  00000+0  56299-3 0  9994
2 62954  53.1578 274.9227 0001121  86.2006 273.9123 15.30193973 24281
STARLINK-32880          
1 62955U 25029H   25191.53616792  .00010026  00000+0  35008-3 0  9999
2 62955  53.1582 277.1774 0001155  81.2866 278.8266 15.30207443 24252
STARLINK-32815          
1 62956U 25029J   25191.52719818  .00014739  00000+0  50884-3 0  9996
2 62956  53.1567 274.9953 0000983  86.4879 273.6234 15.30194792 24282
STARLINK-32879          
1 62957U 25029K   25191.56044785  .00004757  00000+0  17269-3 0  9994
2 62957  53.1594 277.3337 0001211  83.4186 276.6953 15.30190538 24240
STARLINK-32885          
1 62958U 25029L   25191.52825234  .00006999  00000+0  24818-3 0  9995
2 62958  53.1580 274.9998 0001174  87.8632 272.2504 15.30203692 24277
STARLINK-32896          
1 62959U 25029M   25191.50778949  .00014260  00000+0  49263-3 0  9995
2 62959  53.1593 277.7134 0001200  82.4436 277.6701 15.30201764 24230
STARLINK-32877          
1 62960U 25029N   25191.50145758  .00008650  00000+0  30383-3 0  9992
2 62960  53.1598 277.6729 0001037  77.9960 282.1157 15.30198385 24213
STARLINK-32889          
1 62961U 25029P   25191.50462433  .00016095  00000+0  55437-3 0  9994
2 62961  53.1594 277.6959 0001196  79.4781 280.6355 15.30199956 24239
STARLINK-32858          
1 62962U 25029Q   25191.51084059  .00009185  00000+0  32182-3 0  9994
2 62962  53.1585 277.0234 0000984  82.6348 277.4765 15.30203658 24222
STARLINK-32882          
1 62963U 25029R   25191.53036298  .00010111  00000+0  35300-3 0  9995
2 62963  53.1573 275.0122 0001088  83.5210 276.5914 15.30203434 24271
STARLINK-32887          
1 62964U 25029S   25191.52510721  .00010750  00000+0  37521-3 0  9999
2 62964  53.1572 274.9828 0000742  93.6309 266.4777 15.30142534 24277
STARLINK-32836          
1 62965U 25029T   25191.45555042  .00003650  00000+0  13531-3 0  9993
2 62965  53.1585 275.2587 0001311  96.3990 263.7159 15.30197566 24265
STARLINK-32888          
1 62966U 25029U   25191.58335648  .00011671  00000+0  41622-3 0  9990
2 62966  53.1595 277.2154 0000700  69.0099  63.1248 15.29350207 24247
STARLINK-32897          
1 62967U 25029V   25191.53089163  .00007248  00000+0  25662-3 0  9995
2 62967  53.1571 277.1427 0000987  95.8713 264.2400 15.30197742 24240
STARLINK-32863          
1 62968U 25029W   25191.55410856  .00008244  00000+0  29022-3 0  9996
2 62968  53.1591 277.2884 0001061  94.7158 265.3964 15.30193333 24199
STARLINK-32894          
1 62969U 25029X   25191.52455074  .00031423  00000+0  10670-2 0  9998
2 62969  53.1580 277.1046 0001262  97.1469 262.9675 15.30248160 24249
STARLINK-32826          
1 62970U 25029Y   25191.51822880  .00006638  00000+0  23605-3 0  9995
2 62970  53.1587 277.0664 0001190  88.7804 271.3333 15.30198858 24245
HULIANWANG DIGUI-11     
1 62971U 25030A   25191.54548223 -.00000101  00000+0  49891-4 0  9993
2 62971  50.0022  21.2197 0000548 172.8928 187.1952 13.29325444 20419
HULIANWANG DIGUI-12     
1 62972U 25030B   25191.55385310 -.00000108  00000+0  35283-4 0  9998
2 62972  50.0038  21.2825 0000635 163.7593 196.3300 13.29325991 20415
HULIANWANG DIGUI-13     
1 62973U 25030C   25191.53712936 -.00000114  00000+0  20824-4 0  9997
2 62973  50.0042  21.2008 0000556 155.2000 204.8899 13.29324975 20414
HULIANWANG DIGUI-14     
1 62974U 25030D   25191.58726951 -.00000107  00000+0  35748-4 0  9998
2 62974  50.0047  20.8098 0000555 161.1378 198.9515 13.29325873 20424
HULIANWANG DIGUI-15     
1 62975U 25030E   25191.52878494 -.00000109  00000+0  33101-4 0  9996
2 62975  50.0042  21.1592 0000516 168.5281 191.5603 13.29325527 20416
HULIANWANG DIGUI-16     
1 62976U 25030F   25191.57890680 -.00000101  00000+0  48605-4 0  9990
2 62976  50.0065  20.7888 0000568 157.2233 202.8664 13.29325461 20425
HULIANWANG DIGUI-17     
1 62977U 25030G   25191.57054888 -.00000104  00000+0  44216-4 0  9990
2 62977  50.0077  20.7613 0000494 161.5021 198.5869 13.29325712 20423
HULIANWANG DIGUI-18     
1 62978U 25030H   25191.56218250 -.00000104  00000+0  42161-4 0  9992
2 62978  50.0082  20.7204 0000527 162.0516 198.0374 13.29325728 20421
HULIANWANG DIGUI-19     
1 62979U 25030J   25191.52042274 -.00000115  00000+0  20440-4 0  9998
2 62979  50.0067  21.1465 0000594 157.8778 202.2120 13.29325316 20414
STARLINK-11543 [DTC]    
1 62981U 25031A   25191.23056209  .00133616  00000+0  10272-2 0  9995
2 62981  42.9981  22.5913 0000849 305.6317  54.4472 15.70861981 24614
